<?xml version="1.0"?>
<gpx creator="Tractive GeoData Util" version="1.1" xmlns="http://www.topografix.com/GPX/1/1" xmlns:xsi="http://www.w3.org/2001/XMLSchema-instance" xsi:schemaLocation="http://www.topografix.com/GPX/1/1 http://www.topografix.com/GPX/1/1/gpx.xsd">
  <metadata>
    <link href="https://tractive.com">
      <text>Generated by Tractive Platform Service</text>
    </link>
  </metadata>
  <trk>
    <name>Tracker XHRMVRYR, 2026-04-11T13:00:07+00:00 2026-04-11T14:07:42+00:00</name>
    <trkseg>
      <trkpt lat="33.884839" lon="-84.530909">
        <ele>276</ele>
        <time>2026-04-11T13:00:07Z</time>
        <cmt>speed: 0.0</cmt>
      </trkpt>
      <trkpt lat="33.884887" lon="-84.530912">
        <ele>294</ele>
        <time>2026-04-11T13:02:37Z</time>
        <cmt>speed: 0.0</cmt>
      </trkpt>
      <trkpt lat="33.884537" lon="-84.531055">
        <ele>278</ele>
        <time>2026-04-11T13:05:07Z</time>
        <cmt>speed: 0.0</cmt>
      </trkpt>
      <trkpt lat="33.884993" lon="-84.530914">
        <ele>306</ele>
        <time>2026-04-11T13:07:40Z</time>
        <cmt>speed: 0.4</cmt>
      </trkpt>
      <trkpt lat="33.884989" lon="-84.530855">
        <ele>300</ele>
        <time>2026-04-11T13:10:09Z</time>
        <cmt>speed: 0.4</cmt>
      </trkpt>
      <trkpt lat="33.884783" lon="-84.530844">
        <ele>308</ele>
        <time>2026-04-11T13:12:37Z</time>
        <cmt>speed: 0.5</cmt>
      </trkpt>
      <trkpt lat="33.884617" lon="-84.531022">
        <ele>300</ele>
        <time>2026-04-11T13:15:06Z</time>
        <cmt>speed: 0.1</cmt>
      </trkpt>
      <trkpt lat="33.884575" lon="-84.531021">
        <ele>279</ele>
        <time>2026-04-11T13:17:39Z</time>
        <cmt>speed: 0.0</cmt>
      </trkpt>
      <trkpt lat="33.884585" lon="-84.530979">
        <ele>255</ele>
        <time>2026-04-11T13:20:08Z</time>
        <cmt>speed: 0.0</cmt>
      </trkpt>
      <trkpt lat="33.884681" lon="-84.530999">
        <ele>313</ele>
        <time>2026-04-11T13:22:37Z</time>
        <cmt>speed: 0.0</cmt>
      </trkpt>
      <trkpt lat="33.884717" lon="-84.530994">
        <ele>315</ele>
        <time>2026-04-11T13:25:08Z</time>
        <cmt>speed: 0.0</cmt>
      </trkpt>
      <trkpt lat="33.884582" lon="-84.531033">
        <ele>303</ele>
        <time>2026-04-11T13:27:40Z</time>
        <cmt>speed: 0.0</cmt>
      </trkpt>
      <trkpt lat="33.884656" lon="-84.531087">
        <ele>298</ele>
        <time>2026-04-11T13:30:12Z</time>
        <cmt>speed: 0.0</cmt>
      </trkpt>
      <trkpt lat="33.884525" lon="-84.530983">
        <ele>313</ele>
        <time>2026-04-11T13:32:41Z</time>
        <cmt>speed: 0.0</cmt>
      </trkpt>
      <trkpt lat="33.88459" lon="-84.530908">
        <ele>349</ele>
        <time>2026-04-11T13:35:08Z</time>
        <cmt>speed: 0.0</cmt>
      </trkpt>
      <trkpt lat="33.884715" lon="-84.530923">
        <ele>293</ele>
        <time>2026-04-11T13:37:41Z</time>
        <cmt>speed: 0.5</cmt>
      </trkpt>
      <trkpt lat="33.884802" lon="-84.53082">
        <ele>301</ele>
        <time>2026-04-11T13:40:10Z</time>
        <cmt>speed: 0.5</cmt>
      </trkpt>
      <trkpt lat="33.884979" lon="-84.53073">
        <ele>305</ele>
        <time>2026-04-11T13:42:41Z</time>
        <cmt>speed: 0.1</cmt>
      </trkpt>
      <trkpt lat="33.884863" lon="-84.530883">
        <ele>301</ele>
        <time>2026-04-11T13:45:10Z</time>
        <cmt>speed: 0.0</cmt>
      </trkpt>
      <trkpt lat="33.884879" lon="-84.530921">
        <ele>306</ele>
        <time>2026-04-11T13:47:42Z</time>
        <cmt>speed: 0.0</cmt>
      </trkpt>
      <trkpt lat="33.884701" lon="-84.530768">
        <ele>307</ele>
        <time>2026-04-11T13:50:10Z</time>
        <cmt>speed: 0.0</cmt>
      </trkpt>
      <trkpt lat="33.884675" lon="-84.53078">
        <ele>298</ele>
        <time>2026-04-11T13:52:40Z</time>
        <cmt>speed: 0.0</cmt>
      </trkpt>
      <trkpt lat="33.88463" lon="-84.530982">
        <ele>309</ele>
        <time>2026-04-11T13:55:11Z</time>
        <cmt>speed: 0.0</cmt>
      </trkpt>
      <trkpt lat="33.884635" lon="-84.530971">
        <ele>276</ele>
        <time>2026-04-11T13:57:40Z</time>
        <cmt>speed: 0.0</cmt>
      </trkpt>
      <trkpt lat="33.884696" lon="-84.530951">
        <ele>285</ele>
        <time>2026-04-11T14:00:10Z</time>
        <cmt>speed: 0.0</cmt>
      </trkpt>
      <trkpt lat="33.884792" lon="-84.53072">
        <ele>309</ele>
        <time>2026-04-11T14:02:42Z</time>
        <cmt>speed: 0.0</cmt>
      </trkpt>
      <trkpt lat="33.884791" lon="-84.530615">
        <ele>309</ele>
        <time>2026-04-11T14:05:11Z</time>
        <cmt>speed: 0.0</cmt>
      </trkpt>
      <trkpt lat="33.884865" lon="-84.530574">
        <ele>311</ele>
        <time>2026-04-11T14:07:42Z</time>
        <cmt>speed: 0.0</cmt>
      </trkpt>
    </trkseg>
  </trk>
</gpx>
